ONEWEB-0474             
1 51654U 22012AJ  24050.91367685 -.00000626  00000+0 -18289-2 0  9999
2 51654  87.8930 204.7811 0001795  93.6288 266.5045 13.10372450 98202
ONEWEB-0475             
1 51655U 22012AK  24050.86367254  .00000078  00000+0  16680-3 0  9999
2 51655  87.9256 174.6112 0002106  97.9101 262.2269 13.17648961101972
ONEWEB-0490             
1 54113U 22138A   24050.89629732  .00000080  00000+0  16721-3 0  9994
2 54113  87.9156 113.8399 0002006  95.8362 264.3000 13.19725744 64948
ONEWEB-0492             
1 54114U 22138B   24050.92156939 -.00000018  00000+0 -77490-4 0  9997
2 54114  87.9161 113.8316 0002039  90.3804 269.7562 13.19724325 64958
ONEWEB-0495             
1 54115U 22138C   24050.67200830  .00000050  00000+0  93094-4 0  9992
2 54115  87.9163 113.8929 0002287  92.4857 267.6537 13.19724682 64907
ONEWEB-0497             
1 54116U 22138D   24050.91209670 -.00000004  00000+0 -42975-4 0  9994
2 54116  87.9158 113.8383 0002020  95.8060 264.3303 13.19724060 64921
ONEWEB-0500             
1 54118U 22138F   24050.67043026  .00000050  00000+0  92498-4 0  9994
2 54118  87.9160 113.8821 0001922  96.2636 263.8715 13.19724254 64912
